{"epoch":1784902576,"count":18312,"objects":[{"id":"31573","name":"GLOBALSTAR M069","type":"PAYLOAD","l1":"1 31573U 07020C   26205.30352747 -.00000069  00000-0  22006-3 0  9993","l2":"2 31573  52.0021 147.0712 0001440 230.5288 288.5121 12.23472718883340"},{"id":"31574","name":"GLOBALSTAR M072","type":"PAYLOAD","l1":"1 31574U 07020D   26204.35795720 -.00000082  00000-0  32091-4 0  9991","l2":"2 31574  51.9954   3.9489 0001636  50.1578 315.8926 11.91658768879291"},{"id":"32265","name":"GLOBALSTAR M066","type":"PAYLOAD","l1":"1 32265U 07048C   26204.73707699 -.00000018  00000-0  64737-3 0  9999","l2":"2 32265  51.9608 312.9902 0005452 119.1810  45.0883 12.30390701864723"},{"id":"37188","name":"GLOBALSTAR M079","type":"PAYLOAD","l1":"1 37188U 10054A   26204.90049256 -.00000097  00000-0  35675-4 0  9993","l2":"2 37188  52.0060 356.9093 0001110  91.6633  73.2485 12.62266445727180"},{"id":"37189","name":"GLOBALSTAR M074","type":"PAYLOAD","l1":"1 37189U 10054B   26204.84379411 -.00000100  00000-0  20562-4 0  9990","l2":"2 37189  52.0038 356.3417 0000824 106.4571  40.5266 12.62262047727781"},{"id":"37190","name":"GLOBALSTAR M076","type":"PAYLOAD","l1":"1 37190U 10054C   26204.44937352 -.00000081  00000-0  12603-3 0  9996","l2":"2 37190  52.0054 357.7490 0001074 103.3381 290.3890 12.62262713727452"},{"id":"37191","name":"GLOBALSTAR M077","type":"PAYLOAD","l1":"1 37191U 10054D   26204.10514396 -.00000089  00000-0 -19578-3 0  9996","l2":"2 37191  51.9963  88.1305 0002148 239.9139 289.0346 11.67547147725337"},{"id":"37192","name":"GLOBALSTAR M075","type":"PAYLOAD","l1":"1 37192U 10054E   26205.28441161 -.00000102  00000-0  12688-4 0  9997","l2":"2 37192  51.9958  37.2395 0000801  77.9783  92.8375 12.62267906726628"},{"id":"37193","name":"GLOBALSTAR M073","type":"PAYLOAD","l1":"1 37193U 10054F   26205.33376211 -.00000102  00000-0  95574-5 0  9993","l2":"2 37193  52.0077 311.2204 0000950 110.2091 283.2459 12.62266980728627"},{"id":"37739","name":"GLOBALSTAR M083","type":"PAYLOAD","l1":"1 37739U 11033A   26205.18859997 -.00000084  00000-0  10874-3 0  9994","l2":"2 37739  51.9847 259.8411 0000661 114.5200 280.1334 12.62258553697621"},{"id":"37740","name":"GLOBALSTAR M088","type":"PAYLOAD","l1":"1 37740U 11033B   26205.26472206 -.00000092  00000-0  65640-4 0  9990","l2":"2 37740  52.0196 166.1235 0000222  33.5462 106.0659 12.62269599693173"},{"id":"37741","name":"GLOBALSTAR M091","type":"PAYLOAD","l1":"1 37741U 11033C   26205.20389765 -.00000105  00000-0 -78952-5 0  9999","l2":"2 37741  51.9993 129.2203 0000633  39.6777 123.8766 12.62264362693959"},{"id":"37742","name":"GLOBALSTAR M085","type":"PAYLOAD","l1":"1 37742U 11033D   26205.11174464 -.00000101  00000-0  13179-4 0  9992","l2":"2 37742  52.0129  80.8254 0000937  57.1863 107.4023 12.62264575694455"},{"id":"37743","name":"GLOBALSTAR M081","type":"PAYLOAD","l1":"1 37743U 11033E   26205.05414545 -.00000101  00000-0  15328-4 0  9991","l2":"2 37743  51.9961  83.3946 0000798  67.8433  74.7839 12.62265462694592"},{"id":"37744","name":"GLOBALSTAR M089","type":"PAYLOAD","l1":"1 37744U 11033F   26205.25812670 -.00000098  00000-0  31882-4 0  9993","l2":"2 37744  51.9942  36.9244 0000719 100.8469  70.3341 12.62267672695469"},{"id":"38040","name":"GLOBALSTAR M084","type":"PAYLOAD","l1":"1 38040U 11080A   26205.33009865 -.00000085  00000-0  10236-3 0  9993","l2":"2 38040  52.0000 264.2088 0000628 146.6416 291.4224 12.62263764673456"},{"id":"38041","name":"GLOBALSTAR M080","type":"PAYLOAD","l1":"1 38041U 11080B   26205.12955998 -.00000084  00000-0  10930-3 0  9998","l2":"2 38041  52.0051 266.5510 0000295  60.7201 315.2288 12.62257697673550"},{"id":"38042","name":"GLOBALSTAR M082","type":"PAYLOAD","l1":"1 38042U 11080C   26205.23820550 -.00000080  00000-0  13314-3 0  9991","l2":"2 38042  52.0049 221.7230 0000247  42.5105  37.5354 12.62264428674276"},{"id":"38043","name":"GLOBALSTAR M092","type":"PAYLOAD","l1":"1 38043U 11080D   26205.27872162 -.00000092  00000-0  63644-4 0  9997","l2":"2 38043  52.0103 311.9992 0000682 114.3632 269.3517 12.62268022672730"},{"id":"38044","name":"GLOBALSTAR M090","type":"PAYLOAD","l1":"1 38044U 11080E   26204.23846399 -.00000089  00000-0  80019-4 0  9997","l2":"2 38044  52.0096 218.7334 0000392  79.0708  14.7144 12.62269634674263"},{"id":"38045","name":"GLOBALSTAR M086","type":"PAYLOAD","l1":"1 38045U 11080F   26205.20664340 -.00000090  00000-0  77855-4 0  9996","l2":"2 38045  51.9867 215.6544 0001367 124.1920 315.6432 12.62287827674333"},{"id":"39072","name":"GLOBALSTAR M097","type":"PAYLOAD","l1":"1 39072U 13005A   26204.98344571 -.00000115  00000-0 -61790-4 0  9991","l2":"2 39072  52.0037 131.3238 0000621  51.2907 308.8015 12.62271306621558"},{"id":"39073","name":"GLOBALSTAR M093","type":"PAYLOAD","l1":"1 39073U 13005B   26205.19426883 -.00000104  00000-0 -77469-6 0  9993","l2":"2 39073  52.0102 124.0439 0000843  56.8683 303.2264 12.62266488621530"},{"id":"39074","name":"GLOBALSTAR M094","type":"PAYLOAD","l1":"1 39074U 13005C   26204.56065947 -.00000104  00000-0  59948-6 0  9995","l2":"2 39074  51.9969  40.0524 0001049  77.3511 282.7473 12.62264263623061"},{"id":"39075","name":"GLOBALSTAR M096","type":"PAYLOAD","l1":"1 39075U 13005D   26205.04928535 -.00000099  00000-0  27608-4 0  9990","l2":"2 39075  52.0077  87.3961 0000891  58.4526 301.6428 12.62265980622048"},{"id":"39076","name":"GLOBALSTAR M078","type":"PAYLOAD","l1":"1 39076U 13005E   26205.25999690 -.00000098  00000-0  34774-4 0  9995","l2":"2 39076  51.9853 170.7130 0001060   3.3695 356.7178 12.62260131620694"},{"id":"39077","name":"GLOBALSTAR M095","type":"PAYLOAD","l1":"1 39077U 13005F   26205.28665652 -.00000098  00000-0  34366-4 0  9994","l2":"2 39077  52.0061 168.2877 0000675  28.2431 331.8472 12.62264138620550"},{"id":"52888","name":"GLOBALSTAR M087","type":"PAYLOAD","l1":"1 52888U 22064A   26205.22054431 -.00000107  00000-0 -17611-4 0  9991","l2":"2 52888  52.0015 309.7081 0000799  96.6143 263.4814 12.62269326195819"}]}